{"type":"FeatureCollection","features":[{"type":"Feature","properties":{"name":"M9U4 site — South New Brighton / Southshore spit","source":"Drawn from CCC DP High Flood Hazard Residential Overlay extent; estuary edge to Marine Parade, Bridge St to Southshore Reserve","crs":"WGS84"},"geometry":{"type":"Polygon","coordinates":[[[172.7315,-43.5225],[172.7365,-43.5225],[172.7405,-43.53],[172.744,-43.539],[172.7455,-43.544],[172.742,-43.5445],[172.7385,-43.539],[172.7345,-43.53],[172.7315,-43.525],[172.7315,-43.5225]]]}}]}
